{
"type": "FeatureCollection",
"name": "liverpool-msoa-centroids",
"crs": { "type": "name", "properties": { "name": "urn:ogc:def:crs:OGC:1.3:CRS84" } },
"features": [
{ "type": "Feature", "properties": { "MSOA21CD": "E02001347" }, "geometry": { "type": "Point", "coordinates": [ -2.92644387457052, 53.468287352052997 ] } },
{ "type": "Feature", "properties": { "MSOA21CD": "E02001348" }, "geometry": { "type": "Point", "coordinates": [ -2.95299682341619, 53.467092543417998 ] } },
{ "type": "Feature", "properties": { "MSOA21CD": "E02001349" }, "geometry": { "type": "Point", "coordinates": [ -2.96578624249312, 53.461862801955498 ] } },
{ "type": "Feature", "properties": { "MSOA21CD": "E02001350" }, "geometry": { "type": "Point", "coordinates": [ -2.90244903007012, 53.452929712963098 ] } },
{ "type": "Feature", "properties": { "MSOA21CD": "E02001351" }, "geometry": { "type": "Point", "coordinates": [ -2.9275873814135, 53.452928221009898 ] } },
{ "type": "Feature", "properties": { "MSOA21CD": "E02001352" }, "geometry": { "type": "Point", "coordinates": [ -2.96304255310158, 53.452719811005899 ] } },
{ "type": "Feature", "properties": { "MSOA21CD": "E02001353" }, "geometry": { "type": "Point", "coordinates": [ -2.88134098029811, 53.451416994376999 ] } },
{ "type": "Feature", "properties": { "MSOA21CD": "E02001354" }, "geometry": { "type": "Point", "coordinates": [ -2.94200713994819, 53.447471558199197 ] } },
{ "type": "Feature", "properties": { "MSOA21CD": "E02001355" }, "geometry": { "type": "Point", "coordinates": [ -2.96179144689601, 53.444604995347397 ] } },
{ "type": "Feature", "properties": { "MSOA21CD": "E02001356" }, "geometry": { "type": "Point", "coordinates": [ -2.91549570082535, 53.443368134241403 ] } },
{ "type": "Feature", "properties": { "MSOA21CD": "E02001357" }, "geometry": { "type": "Point", "coordinates": [ -2.93188362469955, 53.442721263052199 ] } },
{ "type": "Feature", "properties": { "MSOA21CD": "E02001358" }, "geometry": { "type": "Point", "coordinates": [ -2.96909779117237, 53.441188874763299 ] } },
{ "type": "Feature", "properties": { "MSOA21CD": "E02001359" }, "geometry": { "type": "Point", "coordinates": [ -2.89180412666884, 53.4370664896405 ] } },
{ "type": "Feature", "properties": { "MSOA21CD": "E02001360" }, "geometry": { "type": "Point", "coordinates": [ -2.97876212532152, 53.436479625297999 ] } },
{ "type": "Feature", "properties": { "MSOA21CD": "E02001361" }, "geometry": { "type": "Point", "coordinates": [ -2.94666555403057, 53.434542001900297 ] } },
{ "type": "Feature", "properties": { "MSOA21CD": "E02001362" }, "geometry": { "type": "Point", "coordinates": [ -2.9205656061685, 53.4338444882369 ] } },
{ "type": "Feature", "properties": { "MSOA21CD": "E02001363" }, "geometry": { "type": "Point", "coordinates": [ -2.87698015630167, 53.430730204895397 ] } },
{ "type": "Feature", "properties": { "MSOA21CD": "E02001364" }, "geometry": { "type": "Point", "coordinates": [ -2.96287645480789, 53.428784434375999 ] } },
{ "type": "Feature", "properties": { "MSOA21CD": "E02001365" }, "geometry": { "type": "Point", "coordinates": [ -2.95025722580785, 53.427641843442601 ] } },
{ "type": "Feature", "properties": { "MSOA21CD": "E02001366" }, "geometry": { "type": "Point", "coordinates": [ -2.9310677597412, 53.4268402915135 ] } },
{ "type": "Feature", "properties": { "MSOA21CD": "E02001367" }, "geometry": { "type": "Point", "coordinates": [ -2.90206410247674, 53.427276997708098 ] } },
{ "type": "Feature", "properties": { "MSOA21CD": "E02001368" }, "geometry": { "type": "Point", "coordinates": [ -2.98514073816332, 53.423947480448099 ] } },
{ "type": "Feature", "properties": { "MSOA21CD": "E02001369" }, "geometry": { "type": "Point", "coordinates": [ -2.9711610626507, 53.419908824361698 ] } },
{ "type": "Feature", "properties": { "MSOA21CD": "E02001370" }, "geometry": { "type": "Point", "coordinates": [ -2.95415811332876, 53.420354953071403 ] } },
{ "type": "Feature", "properties": { "MSOA21CD": "E02001371" }, "geometry": { "type": "Point", "coordinates": [ -2.87338532275697, 53.419153129379097 ] } },
{ "type": "Feature", "properties": { "MSOA21CD": "E02001372" }, "geometry": { "type": "Point", "coordinates": [ -2.88855975259926, 53.419139908418302 ] } },
{ "type": "Feature", "properties": { "MSOA21CD": "E02001373" }, "geometry": { "type": "Point", "coordinates": [ -2.91876406787359, 53.4169790345317 ] } },
{ "type": "Feature", "properties": { "MSOA21CD": "E02001374" }, "geometry": { "type": "Point", "coordinates": [ -2.93924565359095, 53.4143011136726 ] } },
{ "type": "Feature", "properties": { "MSOA21CD": "E02001375" }, "geometry": { "type": "Point", "coordinates": [ -2.90869119801651, 53.4147259756488 ] } },
{ "type": "Feature", "properties": { "MSOA21CD": "E02001376" }, "geometry": { "type": "Point", "coordinates": [ -2.94994662130791, 53.413010834918303 ] } },
{ "type": "Feature", "properties": { "MSOA21CD": "E02001377" }, "geometry": { "type": "Point", "coordinates": [ -2.95737833123201, 53.405675745305899 ] } },
{ "type": "Feature", "properties": { "MSOA21CD": "E02001378" }, "geometry": { "type": "Point", "coordinates": [ -2.91353135103864, 53.404907678286101 ] } },
{ "type": "Feature", "properties": { "MSOA21CD": "E02001380" }, "geometry": { "type": "Point", "coordinates": [ -2.89801934864453, 53.4034344236035 ] } },
{ "type": "Feature", "properties": { "MSOA21CD": "E02001381" }, "geometry": { "type": "Point", "coordinates": [ -2.93465451710248, 53.399966159297598 ] } },
{ "type": "Feature", "properties": { "MSOA21CD": "E02001382" }, "geometry": { "type": "Point", "coordinates": [ -2.8858279482133, 53.400112458780299 ] } },
{ "type": "Feature", "properties": { "MSOA21CD": "E02001383" }, "geometry": { "type": "Point", "coordinates": [ -2.96892034840847, 53.397442617198202 ] } },
{ "type": "Feature", "properties": { "MSOA21CD": "E02001384" }, "geometry": { "type": "Point", "coordinates": [ -2.93140357391446, 53.394214427407697 ] } },
{ "type": "Feature", "properties": { "MSOA21CD": "E02001385" }, "geometry": { "type": "Point", "coordinates": [ -2.95121183951705, 53.394311607017002 ] } },
{ "type": "Feature", "properties": { "MSOA21CD": "E02001386" }, "geometry": { "type": "Point", "coordinates": [ -2.86139085607558, 53.393000311620597 ] } },
{ "type": "Feature", "properties": { "MSOA21CD": "E02001387" }, "geometry": { "type": "Point", "coordinates": [ -2.90489111353431, 53.390596311910599 ] } },
{ "type": "Feature", "properties": { "MSOA21CD": "E02001388" }, "geometry": { "type": "Point", "coordinates": [ -2.91938481381962, 53.388806085619798 ] } },
{ "type": "Feature", "properties": { "MSOA21CD": "E02001389" }, "geometry": { "type": "Point", "coordinates": [ -2.95301332254464, 53.388534004127003 ] } },
{ "type": "Feature", "properties": { "MSOA21CD": "E02001390" }, "geometry": { "type": "Point", "coordinates": [ -2.96732863891069, 53.387577063622899 ] } },
{ "type": "Feature", "properties": { "MSOA21CD": "E02001391" }, "geometry": { "type": "Point", "coordinates": [ -2.83798995676661, 53.386979780172297 ] } },
{ "type": "Feature", "properties": { "MSOA21CD": "E02001392" }, "geometry": { "type": "Point", "coordinates": [ -2.8693151722515, 53.386401082968803 ] } },
{ "type": "Feature", "properties": { "MSOA21CD": "E02001393" }, "geometry": { "type": "Point", "coordinates": [ -2.88970362186068, 53.383878905053699 ] } },
{ "type": "Feature", "properties": { "MSOA21CD": "E02001394" }, "geometry": { "type": "Point", "coordinates": [ -2.93309532828599, 53.381336680021398 ] } },
{ "type": "Feature", "properties": { "MSOA21CD": "E02001395" }, "geometry": { "type": "Point", "coordinates": [ -2.91381296292779, 53.380968877247803 ] } },
{ "type": "Feature", "properties": { "MSOA21CD": "E02001396" }, "geometry": { "type": "Point", "coordinates": [ -2.96201374613838, 53.379376195063401 ] } },
{ "type": "Feature", "properties": { "MSOA21CD": "E02001397" }, "geometry": { "type": "Point", "coordinates": [ -2.86406356307537, 53.376027165816197 ] } },
{ "type": "Feature", "properties": { "MSOA21CD": "E02001398" }, "geometry": { "type": "Point", "coordinates": [ -2.94339399223894, 53.375293171472997 ] } },
{ "type": "Feature", "properties": { "MSOA21CD": "E02001399" }, "geometry": { "type": "Point", "coordinates": [ -2.91146737517627, 53.369053770070501 ] } },
{ "type": "Feature", "properties": { "MSOA21CD": "E02001400" }, "geometry": { "type": "Point", "coordinates": [ -2.89358378941901, 53.365608982383698 ] } },
{ "type": "Feature", "properties": { "MSOA21CD": "E02001401" }, "geometry": { "type": "Point", "coordinates": [ -2.85883290202802, 53.362047503368402 ] } },
{ "type": "Feature", "properties": { "MSOA21CD": "E02001402" }, "geometry": { "type": "Point", "coordinates": [ -2.91608011804733, 53.361859085494302 ] } },
{ "type": "Feature", "properties": { "MSOA21CD": "E02001403" }, "geometry": { "type": "Point", "coordinates": [ -2.89972267598019, 53.356360508038399 ] } },
{ "type": "Feature", "properties": { "MSOA21CD": "E02001404" }, "geometry": { "type": "Point", "coordinates": [ -2.86298995743537, 53.346440115418901 ] } },
{ "type": "Feature", "properties": { "MSOA21CD": "E02001405" }, "geometry": { "type": "Point", "coordinates": [ -2.83525072007376, 53.342478923838897 ] } },
{ "type": "Feature", "properties": { "MSOA21CD": "E02006932" }, "geometry": { "type": "Point", "coordinates": [ -2.97811767511584, 53.406579824701097 ] } },
{ "type": "Feature", "properties": { "MSOA21CD": "E02006933" }, "geometry": { "type": "Point", "coordinates": [ -2.98411024437947, 53.396671850043901 ] } },
{ "type": "Feature", "properties": { "MSOA21CD": "E02006934" }, "geometry": { "type": "Point", "coordinates": [ -2.99243100206774, 53.410370560434501 ] } }
]
}
